$$SOE
2460721.500000000, A.D. 2025-Feb-15 00:00:00.0000, 3.793103775820902E+08, 2.692291713945143E+08, -2.187818941898149E+07,
2460728.500000000, A.D. 2025-Feb-22 00:00:00.0000, 3.747433001591311E+08, 2.775347030163680E+08, -2.308434631059717E+07,
2460735.500000000, A.D. 2025-Mar-01 00:00:00.0000, 3.699974133735788E+08, 2.857079077864522E+08, -2.427948880135688E+07,
2460742.500000000, A.D. 2025-Mar-08 00:00:00.0000, 3.650763395194921E+08, 2.937459374168602E+08, -2.546313576727740E+07,
2460749.500000000, A.D. 2025-Mar-15 00:00:00.0000, 3.599837013526065E+08, 3.016460302043743E+08, -2.663481688803509E+07,
2460756.500000000, A.D. 2025-Mar-22 00:00:00.0000, 3.547231190987406E+08, 3.094055088445110E+08, -2.779407209582043E+07,
2460763.500000000, A.D. 2025-Mar-29 00:00:00.0000, 3.492982089429907E+08, 3.170217760748876E+08, -2.894045133988155E+07,
2460770.500000000, A.D. 2025-Apr-05 00:00:00.0000, 3.437125833190085E+08, 3.244923112848361E+08, -3.007351444076307E+07,
2460777.500000000, A.D. 2025-Apr-12 00:00:00.0000, 3.379698510651165E+08, 3.318146681943263E+08, -3.119283084941554E+07,
2460784.500000000, A.D. 2025-Apr-19 00:00:00.0000, 3.320736172538514E+08, 3.389864727208142E+08, -3.229797936635451E+07,
2460791.500000000, A.D. 2025-Apr-26 00:00:00.0000, 3.260274829611719E+08, 3.460054208308901E+08, -3.338854786272234E+07,
2460798.500000000, A.D. 2025-May-03 00:00:00.0000, 3.198350450839220E+08, 3.528692763956106E+08, -3.446413301240431E+07,
2460805.500000000, A.D. 2025-May-10 00:00:00.0000, 3.134998962293029E+08, 3.595758690577399E+08, -3.552434003733627E+07,
2460812.500000000, A.D. 2025-May-17 00:00:00.0000, 3.070256247085017E+08, 3.661230920693944E+08, -3.656878247288458E+07,
2460819.500000000, A.D. 2025-May-24 00:00:00.0000, 3.004158148041872E+08, 3.725089000452610E+08, -3.759708197382399E+07,
2460826.500000000, A.D. 2025-May-31 00:00:00.0000, 2.936740477261511E+08, 3.787313069420443E+08, -3.860886817399557E+07,
2460833.500000000, A.D. 2025-Jun-07 00:00:00.0000, 2.868039028509619E+08, 3.847883854674315E+08, -3.960377846453805E+07,
2460840.500000000, A.D. 2025-Jun-14 00:00:00.0000, 2.798089568761365E+08, 3.906782672492802E+08, -4.058145752796832E+07,
2460847.500000000, A.D. 2025-Jun-21 00:00:00.0000, 2.726927821010591E+08, 3.963991404943140E+08, -4.154155700679977E+07,
2460854.500000000, A.D. 2025-Jun-28 00:00:00.0000, 2.654589469615488E+08, 4.019492469019527E+08, -4.248373544977382E+07,
2460861.500000000, A.D. 2025-Jul-05 00:00:00.0000, 2.581110172990454E+08, 4.073268799879541E+08, -4.340765822039105E+07,
2460868.500000000, A.D. 2025-Jul-12 00:00:00.0000, 2.506525571700036E+08, 4.125303840111738E+08, -4.431299732408771E+07,
2460875.500000000, A.D. 2025-Jul-19 00:00:00.0000, 2.430871293822750E+08, 4.175581529279122E+08, -4.519943121832514E+07,
2460882.500000000, A.D. 2025-Jul-26 00:00:00.0000, 2.354182959661906E+08, 4.224086293169518E+08, -4.606664462942454E+07,
2460889.500000000, A.D. 2025-Aug-02 00:00:00.0000, 2.276496186438492E+08, 4.270803032965229E+08, -4.691432838034350E+07,
2460896.500000000, A.D. 2025-Aug-09 00:00:00.0000, 2.197846593184086E+08, 4.315717114179440E+08, -4.774217923265833E+07,
2460903.500000000, A.D. 2025-Aug-16 00:00:00.0000, 2.118269806587725E+08, 4.358814354717354E+08, -4.854989975479971E+07,
2460910.500000000, A.D. 2025-Aug-23 00:00:00.0000, 2.037801470705956E+08, 4.400081012214398E+08, -4.933719824172069E+07,
2460917.500000000, A.D. 2025-Aug-30 00:00:00.0000, 1.956477263807550E+08, 4.439503777779237E+08, -5.010378865745088E+07,
2460924.500000000, A.D. 2025-Sep-06 00:00:00.0000, 1.874332908151049E+08, 4.477069786123594E+08, -5.084939038817582E+07,
2460931.500000000, A.D. 2025-Sep-13 00:00:00.0000, 1.791404155947785E+08, 4.512766617229375E+08, -5.157372785451941E+07,
2460938.500000000, A.D. 2025-Sep-20 00:00:00.0000, 1.707726784208734E+08, 4.546582273132040E+08, -5.227653041733964E+07,
2460945.500000000, A.D. 2025-Sep-27 00:00:00.0000, 1.623336609063082E+08, 4.578505160965839E+08, -5.295753242040004E+07,
2460952.500000000, A.D. 2025-Oct-04 00:00:00.0000, 1.538269499383416E+08, 4.608524087664166E+08, -5.361647314104490E+07,
2460959.500000000, A.D. 2025-Oct-11 00:00:00.0000, 1.452561385973916E+08, 4.636628256881915E+08, -5.425309669163473E+07,
2460966.500000000, A.D. 2025-Oct-18 00:00:00.0000, 1.366248269150169E+08, 4.662807265394973E+08, -5.486715192021757E+07,
2460973.500000000, A.D. 2025-Oct-25 00:00:00.0000, 1.279366226096629E+08, 4.687051099086628E+08, -5.545839232240887E+07,
2460980.500000000, A.D. 2025-Nov-01 00:00:00.0000, 1.191951418385207E+08, 4.709350128676716E+08, -5.602657596694493E+07,
2460987.500000000, A.D. 2025-Nov-08 00:00:00.0000, 1.104040099988955E+08, 4.729695104882336E+08, -5.657146544081345E+07,
2460994.500000000, A.D. 2025-Nov-15 00:00:00.0000, 1.015668627257748E+08, 4.748077152429804E+08, -5.709282783253340E+07,
2461001.500000000, A.D. 2025-Nov-22 00:00:00.0000, 9.268734748721005E+07, 4.764487765128143E+08, -5.759043477285193E+07,
2461008.500000000, A.D. 2025-Nov-29 00:00:00.0000, 8.376912562383804E+07, 4.778918813366938E+08, -5.806406242655222E+07,
2461015.500000000, A.D. 2025-Dec-06 00:00:00.0000, 7.481587255526866E+07, 4.791362562675387E+08, -5.851349123781514E+07,
2461022.500000000, A.D. 2025-Dec-13 00:00:00.0000, 6.583127658518723E+07, 4.801811669622107E+08, -5.893850574383785E+07,
2461029.500000000, A.D. 2025-Dec-20 00:00:00.0000, 5.681903979591519E+07, 4.810259165304303E+08, -5.933889469363120E+07,
2461036.500000000, A.D. 2025-Dec-27 00:00:00.0000, 4.778287995828936E+07, 4.816698452360654E+08, -5.971445116228931E+07,
2461043.500000000, A.D. 2026-Jan-03 00:00:00.0000, 3.872653199677392E+07, 4.821123309356337E+08, -6.006497257719782E+07,
2461050.500000000, A.D. 2026-Jan-10 00:00:00.0000, 2.965374911785920E+07, 4.823527895762357E+08, -6.039026072169083E+07,
2461057.500000000, A.D. 2026-Jan-17 00:00:00.0000, 2.056830383275753E+07, 4.823906756634840E+08, -6.069012174513280E+07,
2461064.500000000, A.D. 2026-Jan-24 00:00:00.0000, 1.147398895112758E+07, 4.822254827246439E+08, -6.096436618496664E+07,
2461071.500000000, A.D. 2026-Jan-31 00:00:00.0000, 2.374618568291479E+06, 4.818567437621583E+08, -6.121280900373137E+07,
2461078.500000000, A.D. 2026-Feb-07 00:00:00.0000, -6.725970893483083E+06, 4.812840316426744E+08, -6.143526965156405E+07,
2461085.500000000, A.D. 2026-Feb-14 00:00:00.0000, -1.582391933769301E+07, 4.805069594086110E+08, -6.163157217879178E+07,
2461092.500000000, A.D. 2026-Feb-21 00:00:00.0000, -2.491534095414639E+07, 4.795251810919006E+08, -6.180154538722581E+07,
2461099.500000000, A.D. 2026-Feb-28 00:00:00.0000, -3.399632257321093E+07, 4.783383941864083E+08, -6.194502282685404E+07,
2461106.500000000, A.D. 2026-Mar-07 00:00:00.0000, -4.306292447258718E+07, 4.769463418301806E+08, -6.206184260854106E+07,
2461113.500000000, A.D. 2026-Mar-14 00:00:00.0000, -5.211118086329539E+07, 4.753488123644608E+08, -6.215184747741960E+07,
2461120.500000000, A.D. 2026-Mar-21 00:00:00.0000, -6.113709827539314E+07, 4.735456391706967E+08, -6.221488507413329E+07,
2461127.500000000, A.D. 2026-Mar-28 00:00:00.0000, -7.013665385417373E+07, 4.715367018178101E+08, -6.225080811631468E+07,
2461134.500000000, A.D. 2026-Apr-04 00:00:00.0000, -7.910579417199336E+07, 4.693219275559379E+08, -6.225947452402157E+07,
2461141.500000000, A.D. 2026-Apr-11 00:00:00.0000, -8.804043428383383E+07, 4.669012927986549E+08, -6.224074754379767E+07,
2461148.500000000, A.D. 2026-Apr-18 00:00:00.0000, -9.693645686915018E+07, 4.642748245892202E+08, -6.219449588669233E+07,
2461155.500000000, A.D. 2026-Apr-25 00:00:00.0000, -1.057897114156851E+08, 4.614426020674586E+08, -6.212059388329081E+07,
2461162.500000000, A.D. 2026-May-02 00:00:00.0000, -1.145960134161632E+08, 4.584047579088827E+08, -6.201892166080497E+07,
2461169.500000000, A.D. 2026-May-09 00:00:00.0000, -1.233511434556646E+08, 4.551614796705689E+08, -6.188936535870215E+07,
2461176.500000000, A.D. 2026-May-16 00:00:00.0000, -1.320508458154931E+08, 4.517130111832486E+08, -6.173181740600434E+07,
2461183.500000000, A.D. 2026-May-23 00:00:00.0000, -1.406908265467696E+08, 4.480596550148177E+08, -6.154617678182882E+07,
2461190.500000000, A.D. 2026-May-30 00:00:00.0000, -1.492667530968420E+08, 4.442017763298193E+08, -6.133234904356499E+07,
2461197.500000000, A.D. 2026-Jun-06 00:00:00.0000, -1.577742558085679E+08, 4.401398048750048E+08, -6.109024636186497E+07,
2461204.500000000, A.D. 2026-Jun-13 00:00:00.0000, -1.662089276308534E+08, 4.358742352917517E+08, -6.081978788263872E+07,
2461211.500000000, A.D. 2026-Jun-20 00:00:00.0000, -1.745663225471811E+08, 4.314056286861213E+08, -6.052090013219456E+07,
2461218.500000000, A.D. 2026-Jun-27 00:00:00.0000, -1.828419544244896E+08, 4.267346151211611E+08, -6.019351733868942E+07,
2461225.500000000, A.D. 2026-Jul-04 00:00:00.0000, -1.910312962867713E+08, 4.218618962590619E+08, -5.983758173373480E+07,
2461232.500000000, A.D. 2026-Jul-11 00:00:00.0000, -1.991297797648980E+08, 4.167882480235384E+08, -5.945304386871509E+07,
2461239.500000000, A.D. 2026-Jul-18 00:00:00.0000, -2.071327946360922E+08, 4.115145233108001E+08, -5.903986295282590E+07,
2461246.500000000, A.D. 2026-Jul-25 00:00:00.0000, -2.150356884352013E+08, 4.060416547546586E+08, -5.859800721550444E+07,
2461253.500000000, A.D. 2026-Aug-01 00:00:00.0000, -2.228337660966960E+08, 4.003706575005119E+08, -5.812745430223705E+07,
2461260.500000000, A.D. 2026-Aug-08 00:00:00.0000, -2.305222894200032E+08, 3.945026319550990E+08, -5.762819172697902E+07,
2461267.500000000, A.D. 2026-Aug-15 00:00:00.0000, -2.380964759513578E+08, 3.884387669650878E+08, -5.710021738301055E+07,
2461274.500000000, A.D. 2026-Aug-22 00:00:00.0000, -2.455514980525955E+08, 3.821803446490017E+08, -5.654353994341350E+07,
2461281.500000000, A.D. 2026-Aug-29 00:00:00.0000, -2.528824844553084E+08, 3.757287455140276E+08, -5.595817905446284E+07,
2461288.500000000, A.D. 2026-Sep-05 00:00:00.0000, -2.600845221743814E+08, 3.690854509915895E+08, -5.534416575216524E+07,
$$EOE